LEMUR-1                 
1 40044U 14033AL  26196.92518393  .00000778  00000+0  95096-4 0  9991
2 40044  97.7910 346.0985 0047669 345.4974  14.4870 14.85338142649732
LEMUR-2-GREENBERG       
1 42837U 17042N   26196.96125073  .00009612  00000+0  31169-3 0  9995
2 42837  97.3828  17.4724 0007243 256.0810 103.9626 15.32167939492790
LEMUR-2-ANDIS           
1 42838U 17042P   26196.46613906  .00012423  00000+0  35705-3 0  9992
2 42838  97.3678  17.2650 0007208 256.6782 103.3658 15.35931248492799
LEMUR-2-MONSON          
1 42839U 17042Q   26196.96761360  .00007942  00000+0  28662-3 0  9990
2 42839  97.4091  17.4066 0005339 241.2271 118.8433 15.28765284492563
LEMUR-2-FURIAUS         
1 42840U 17042R   26196.45186691  .00010036  00000+0  33596-3 0  9994
2 42840  97.3774  14.8562 0006060 329.0574  31.0309 15.31136141492530
LEMUR-2-PETERG          
1 42841U 17042S   26196.79310744  .00012488  00000+0  36941-3 0  9990
2 42841  97.3989  21.8945 0003336 217.3071 142.7941 15.35043275492829
LEMUR-2-DEMBITZ         
1 42842U 17042T   26196.47161280  .00008871  00000+0  29756-3 0  9992
2 42842  97.3825  17.9201 0005052 273.6984  86.3679 15.31114268492676
LEMUR-2-ZACHARY         
1 42845U 17042W   26196.56779325  .00035477  00000+0  57411-3 0  9991
2 42845  97.3566  28.8574 0002547 243.6817 116.4174 15.52741253493605
LEMUR-2-AMANDA-SVANTE   
1 48269U 21034B   26196.77651924  .00021640  00000+0  61885-3 0  9997
2 48269  97.5750 275.8503 0004652 141.7869 218.3705 15.35984090285440
LEMUR-2-SPECIAL-K       
1 48273U 21034F   26196.77829720  .00199645  00000+0  13215-2 0  9997
2 48273  97.5635 285.9220 0006279 213.1843 146.9028 15.74935345286175
LEMUR-2-EMBRIONOVIS     
1 56970U 23084AQ  26196.37513585  .00008068  00000+0  21630-3 0  9991
2 56970  97.6315 341.6746 0008324 205.3093 154.7745 15.38233354172011
LEMUR-2-DEVERILL-M-T    
1 57391U 23100F   26196.94505563  .00015193  00000+0  36954-3 0  9990
2 57391  99.4451 244.0411 0004675 294.1699  65.9052 15.41114697165678
LEMUR-2-BASS            
1 58259U 23174D   26196.73423198  .00011022  00000+0  24344-3 0  9992
2 58259  97.3849 281.8631 0007645  76.5946 283.6154 15.44006422149763
LEMUR-2-JK0903EM1407    
1 58336U 23174CJ  26196.82767245  .00016449  00000+0  26432-3 0  9990
2 58336  97.3926 288.1346 0003535  31.4434 328.7030 15.53090157150173
LEMUR-2-MJR092620       
1 58340U 23174CN  26196.84323046  .00011311  00000+0  23458-3 0  9992
2 58340  97.3978 287.4202 0005223  28.1838 331.9693 15.45877781150072
LEMUR-2-NIMBUS2000      
1 58899U 24022A   26196.52823365  .00014134  00000+0  34278-3 0  9996
2 58899  97.4076  46.9039 0008719  27.8272 332.3439 15.41126431136632
LEMUR-2-VALHALLA        
1 58900U 24022B   26196.53322804  .00010013  00000+0  24866-3 0  9996
2 58900  97.4075  46.8786 0009180  23.0529 337.1127 15.40495238136638
LEMUR-2-CAEL            
1 58903U 24022E   26196.51853263  .00011187  00000+0  26543-3 0  9992
2 58903  97.4056  47.8506 0007093   8.4188 351.7176 15.41863619136707
LEMUR-2-JOHNNYTRUONG    
1 59146U 24043BA  26196.47405403  .00029938  00000+0  33624-3 0  9990
2 59146  97.5393 349.9778 0004048  92.9286 267.2436 15.62579202132456
LEMUR-2-TOMATOKECHUP    
1 60471U 24149D   26196.76571545  .00006660  00000+0  18874-3 0  9990
2 60471  97.3798 278.8952 0003312 121.5505 238.6063 15.36590795106557
LEMUR-2-STELLA          
1 60533U 24149BT  26196.73536930  .00005975  00000+0  34817-3 0  9998
2 60533  97.6737 279.3258 0001241 118.9056 241.2299 15.12378243104811
LEMUR-2-MARHISYAM       
1 60536U 24149BW  26196.79268113  .00006358  00000+0  37630-3 0  9994
2 60536  97.6878 279.8606 0002353  68.7534 291.3947 15.11785796104809
LEMUR-2-AHMED-ASRAR     
1 60576U 24149DN  26196.79858630  .00006960  00000+0  39452-3 0  9990
2 60576  97.7005 282.0723 0001277 205.5723 154.5445 15.13314789104891
LEMUR-2-LLOYD           
1 60577U 24149DP  26196.74512564  .00005332  00000+0  33429-3 0  9999
2 60577  97.6747 277.8984 0004764  71.1619 289.0126 15.09757819104700
LEMUR-2-SQUIRRELCOMM    
1 60578U 24149DQ  26196.93371215  .00002251  00000+0  15271-3 0  9999
2 60578  97.6709 277.7592 0004048 324.3852  35.7105 15.07450137104737
LEMUR-2-SIERRINI        
1 60579U 24149DR  26196.75547602  .00005771  00000+0  34433-3 0  9996
2 60579  97.6843 279.4842 0006482  88.9265 271.2707 15.11519717104773
LEMUR-2-WILSON          
1 62694U 25009CP  26196.73719385  .00000744  00000+0  72753-4 0  9992
2 62694  97.7021 274.7014 0001987 321.9983  38.1097 14.95277647 81627
LEMUR-2-STAR-FOX        
1 62696U 25009CR  26196.19343779  .00003389  00000+0  25750-3 0  9996
2 62696  97.6910 277.6011 0002230  42.2446 317.8950 15.02840720 81760
LEMUR-2-ARIANNA         
1 62699U 25009CU  26196.79114255  .00004081  00000+0  30907-3 0  9990
2 62699  97.6850 277.9462 0002485  46.8705 313.2728 15.02848472 81854
LEMUR-2-ALISIA          
1 62706U 25009DB  26196.76337881  .00004170  00000+0  31293-3 0  9996
2 62706  97.6973 278.7448 0004380 127.5198 232.6426 15.03180364104452
